GLOBALSTAR M069         
1 31573U 07020C   26179.37263890 -.00000060  00000+0  29902-3 0  9992
2 31573  52.0004 220.4675 0002080 172.6853 200.4958 12.23471630880171
GLOBALSTAR M072         
1 31574U 07020D   26179.61551995 -.00000079  00000+0  75713-4 0  9998
2 31574  51.9938  69.8202 0001533   0.3037  13.5734 11.91658427876344
GLOBALSTAR M066         
1 32265U 07048C   26179.60529556 -.00000097  00000+0 -23321-4 0  9992
2 32265  51.9599  25.1342 0005649  68.1635 324.8585 12.30387125861639
GLOBALSTAR M079         
1 37188U 10054A   26178.97402337 -.00000098  00000+0  32423-4 0  9991
2 37188  52.0045  75.8334 0000938  47.4717 326.1835 12.62266272723911
GLOBALSTAR M074         
1 37189U 10054B   26179.63206456 -.00000101  00000+0  14348-4 0  9991
2 37189  52.0024  73.0933 0000759  69.9072 295.6796 12.62261790724601
GLOBALSTAR M076         
1 37190U 10054C   26179.45726970 -.00000105  00000+0 -62593-5 0  9992
2 37190  52.0031  73.8296 0000964  63.8266 106.9806 12.62261900724291
GLOBALSTAR M077         
1 37191U 10054D   26179.24057985 -.00000078  00000+0  47734-5 0  9991
2 37191  51.9929 151.2395 0002556 192.9116 180.1876 11.67548027722431
GLOBALSTAR M075         
1 37192U 10054E   26179.54975407 -.00000116  00000+0 -70217-4 0  9998
2 37192  51.9941 115.5958 0000436  38.1896 133.2375 12.62267420723373
GLOBALSTAR M073         
1 37193U 10054F   26179.51593620 -.00000085  00000+0  10355-3 0  9999
2 37193  52.0076  29.8083 0001078  69.6163 306.4846 12.62266695725361
GLOBALSTAR M083         
1 37739U 11033A   26179.62224227 -.00000085  00000+0  10370-3 0  9996
2 37739  51.9881 337.6975 0000953  85.1503 355.6397 12.62263670694396
GLOBALSTAR M088         
1 37740U 11033B   26179.61167220 -.00000069  00000+0  19455-3 0  9991
2 37740  52.0200 244.1869 0000442 144.1349   7.0871 12.62269047689939
GLOBALSTAR M091         
1 37741U 11033C   26179.54823602 -.00000081  00000+0  12653-3 0  9994
2 37741  51.9968 207.3276 0000020 207.4916 316.1595 12.62264126690715
GLOBALSTAR M085         
1 37742U 11033D   26179.26458833 -.00000107  00000+0 -16509-4 0  9999
2 37742  52.0102 159.4915 0000373   0.3371  13.8119 12.62264205691195
GLOBALSTAR M081         
1 37743U 11033E   26179.21167766 -.00000102  00000+0  73188-5 0  9998
2 37743  51.9932 162.0762 0000263  35.2591 338.0591 12.62265277691336
GLOBALSTAR M089         
1 37744U 11033F   26179.60269748 -.00000116  00000+0 -65705-4 0  9996
2 37744  51.9922 115.0422 0000514  78.5780  93.4263 12.62267406692229
GLOBALSTAR M084         
1 38040U 11080A   26179.59441160 -.00000105  00000+0 -61110-5 0  9991
2 38040  52.0026 342.5545 0001094 104.8858 329.3691 12.62267617670206
GLOBALSTAR M080         
1 38041U 11080B   26179.64629381 -.00000092  00000+0  67595-4 0  9997
2 38041  52.0082 344.1188 0000417  79.4688   0.7751 12.62269770670339
GLOBALSTAR M082         
1 38042U 11080C   26179.64730670 -.00000097  00000+0  37470-4 0  9996
2 38042  52.0086 299.6185 0000459 106.7867 267.8539 12.62263726671048
GLOBALSTAR M092         
1 38043U 11080D   26179.33867419 -.00000086  00000+0  98287-4 0  9996
2 38043  52.0097  30.9550 0000833  79.6238  91.0135 12.62267184669452
GLOBALSTAR M090         
1 38044U 11080E   26179.59433444 -.00000100  00000+0  23255-4 0  9992
2 38044  52.0139 293.7393 0000590  98.6997 274.2542 12.62252960671150
GLOBALSTAR M086         
1 38045U 11080F   26179.61608105 -.00000074  00000+0  16602-3 0  9991
2 38045  51.9909 293.5842 0001688  86.5405 287.1458 12.62287304671104
GLOBALSTAR M097         
1 39072U 13005A   26179.32790133 -.00000074  00000+0  16384-3 0  9999
2 39072  52.0016 209.4238 0000128  85.1952 274.8929 12.62271251618315
GLOBALSTAR M093         
1 39073U 13005B   26179.45942973 -.00000078  00000+0  14576-3 0  9990
2 39073  52.0074 202.3734 0000254  36.1667 323.9217 12.62266149618284
GLOBALSTAR M094         
1 39074U 13005C   26179.53848021 -.00000125  00000+0 -11751-3 0  9995
2 39074  51.9949 116.2371 0000690  30.8149 329.2758 12.62268482619905
GLOBALSTAR M096         
1 39075U 13005D   26179.23525246 -.00000108  00000+0 -24721-4 0  9997
2 39075  52.0045 165.9708 0000304   3.7693 356.3176 12.62265670618781
GLOBALSTAR M078         
1 39076U 13005E   26179.52505817  .00000025  00000+0  71987-3 0  9993
2 39076  51.9862 249.0845 0000502 278.8606  81.2204 12.62260095617446
GLOBALSTAR M095         
1 39077U 13005F   26179.47259090 -.00000071  00000+0  18334-3 0  9996
2 39077  52.0069 246.8643 0000044  52.8039 307.2832 12.62263675617298
GLOBALSTAR M087         
1 52888U 22064A   26179.32740911 -.00000090  00000+0  76002-4 0  9995
2 52888  52.0010  28.5369 0000899  60.5460 299.5497 12.62269283192548
